STARLINK-1548           
1 46054U 20055AD  26068.66670139  .00012023  00000+0  41773-3 0  9993
2 46054  53.1583 114.0202 0001744  82.7733 164.9326 15.30174550  5694
SCS-01 D                
1 63985U 25100D   26068.75607686  .00032471  00000+0  10528-2 0  9990
2 63985  97.3730 145.4097 0006346 266.2302  93.8214 15.31902149 45621
