[{"OBJECT_NAME":"STARLINK-1548","OBJECT_ID":"2020-055AD","EPOCH":"2026-03-09T16:00:03.000096","MEAN_MOTION":15.3017455,"ECCENTRICITY":0.0001744,"INCLINATION":53.1583,"RA_OF_ASC_NODE":114.0202,"ARG_OF_PERICENTER":82.7733,"MEAN_ANOMALY":164.9326,"EPHEMERIS_TYPE":0,"CLASSIFICATION_TYPE":"U","NORAD_CAT_ID":46054,"ELEMENT_SET_NO":999,"REV_AT_EPOCH":569,"BSTAR":0.00041773,"MEAN_MOTION_DOT":0.00012023,"MEAN_MOTION_DDOT":0},{"OBJECT_NAME":"SCS-01 D","OBJECT_ID":"2025-100D","EPOCH":"2026-03-09T18:08:45.040704","MEAN_MOTION":15.31902149,"ECCENTRICITY":0.00063457,"INCLINATION":97.373,"RA_OF_ASC_NODE":145.4097,"ARG_OF_PERICENTER":266.2302,"MEAN_ANOMALY":93.8214,"EPHEMERIS_TYPE":0,"CLASSIFICATION_TYPE":"U","NORAD_CAT_ID":63985,"ELEMENT_SET_NO":999,"REV_AT_EPOCH":4562,"BSTAR":0.0010528181,"MEAN_MOTION_DOT":0.00032471,"MEAN_MOTION_DDOT":0}]
